{"type": "FeatureCollection", "features": [ {"type": "Feature", "properties": {"norad_id": 43262, "name": "GAOFEN-1 04", "group": "resource", "lat": 37.248680969484326, "lon": 40.42106942317195, "alt_km": 637.1989623951031, "timestamp": "2025-12-14T18:52:55.155853+00:00", "meta": {"OBJECT_NAME": "GAOFEN-1 04", "OBJECT_ID": "2018-031D", "EPOCH": "2025-12-14T00:49:13.459584", "MEAN_MOTION": 14.76453843, "ECCENTRICITY": 0.00010103, "INCLINATION": 98.0806, "RA_OF_ASC_NODE": 45.8699, "ARG_OF_PERICENTER": 59.1489, "MEAN_ANOMALY": 300.982, "EPHEMERIS_TYPE": 0, "CLASSIFICATION_TYPE": "U", "NORAD_CAT_ID": 43262, "ELEMENT_SET_NO": 999, "REV_AT_EPOCH": 41536, "BSTAR": 0.00017895638, "MEAN_MOTION_DOT": 1.193e-05, "MEAN_MOTION_DDOT": 0}, "tle": {"line1": "1 43262U 18031D   25348.03418356  .00001193  00000+0  17896-3 0  9999", "line2": "2 43262  98.0806  45.8699 0001010  59.1489 300.9820 14.76453843415365"}}, "geometry": {"type": "Point", "coordinates": [40.42106942317195, 37.248680969484326]}}, {"type": "Feature", "properties": {"norad_id": 43437, "name": "SENTINEL-3B", "group": "resource", "lat": -18.528923058838966, "lon": -128.97396949690213, "alt_km": 807.8951541891574, "timestamp": "2025-12-14T18:52:55.155863+00:00", "meta": {"OBJECT_NAME": "SENTINEL-3B", "OBJECT_ID": "2018-039A", "EPOCH": "2025-12-13T18:23:25.294272", "MEAN_MOTION": 14.26734476, "ECCENTRICITY": 0.00016156, "INCLINATION": 98.6268, "RA_OF_ASC_NODE": 52.9368, "ARG_OF_PERICENTER": 99.9153, "MEAN_ANOMALY": 260.221, "EPHEMERIS_TYPE": 0, "CLASSIFICATION_TYPE": "U", "NORAD_CAT_ID": 43437, "ELEMENT_SET_NO": 999, "REV_AT_EPOCH": 39768, "BSTAR": 0.00010544923, "MEAN_MOTION_DOT": 2.12e-06, "MEAN_MOTION_DDOT": 0}, "tle": {"line1": "1 43437U 18039A   25347.76626498  .00000212  00000+0  10545-3 0  9993", "line2": "2 43437  98.6268  52.9368 0001615  99.9153 260.2210 14.26734476397684"}}, "geometry": {"type": "Point", "coordinates": [-128.97396949690213, -18.528923058838966]}}, {"type": "Feature", "properties": {"norad_id": 43461, "name": "GAOFEN-5 01", "group": "resource", "lat": 73.2651701539623, "lon": -77.77338771079822, "alt_km": 684.9454046570336, "timestamp": "2025-12-14T18:52:55.155873+00:00", "meta": {"OBJECT_NAME": "GAOFEN-5 01", "OBJECT_ID": "2018-043A", "EPOCH": "2025-12-13T21:09:40.188960", "MEAN_MOTION": 14.604113, "ECCENTRICITY": 8.809e-05, "INCLINATION": 98.4327, "RA_OF_ASC_NODE": 310.8689, "ARG_OF_PERICENTER": 335.1873, "MEAN_ANOMALY": 24.9284, "EPHEMERIS_TYPE": 0, "CLASSIFICATION_TYPE": "U", "NORAD_CAT_ID": 43461, "ELEMENT_SET_NO": 999, "REV_AT_EPOCH": 40464, "BSTAR": 0.00014321216, "MEAN_MOTION_DOT": 6.45e-06, "MEAN_MOTION_DDOT": 0}, "tle": {"line1": "1 43461U 18043A   25347.88171515  .00000645  00000+0  14321-3 0  9999", "line2": "2 43461  98.4327 310.8689 0000880 335.1873  24.9284 14.60411300404641"}}, "geometry": {"type": "Point", "coordinates": [-77.77338771079822, 73.2651701539623]}}, {"type": "Feature", "properties": {"norad_id": 43484, "name": "GAOFEN-6", "group": "resource", "lat": -9.906773768008808, "lon": -128.3879050099808, "alt_km": 650.5731251741036, "timestamp": "2025-12-14T18:52:55.155884+00:00", "meta": {"OBJECT_NAME": "GAOFEN-6", "OBJECT_ID": "2018-048A", "EPOCH": "2025-12-14T00:08:08.377728", "MEAN_MOTION": 14.7657001, "ECCENTRICITY": 0.00131547, "INCLINATION": 97.803, "RA_OF_ASC_NODE": 52.2296, "ARG_OF_PERICENTER": 60.2237, "MEAN_ANOMALY": 300.028, "EPHEMERIS_TYPE": 0, "CLASSIFICATION_TYPE": "U", "NORAD_CAT_ID": 43484, "ELEMENT_SET_NO": 999, "REV_AT_EPOCH": 40606, "BSTAR": 0.00019424969, "MEAN_MOTION_DOT": 1.308e-05, "MEAN_MOTION_DDOT": 0}, "tle": {"line1": "1 43484U 18048A   25348.00565252  .00001308  00000+0  19425-3 0  9996", "line2": "2 43484  97.8030  52.2296 0013154  60.2237 300.0280 14.76570010406062"}}, "geometry": {"type": "Point", "coordinates": [-128.3879050099808, -9.906773768008808]}}, {"type": "Feature", "properties": {"norad_id": 43585, "name": "GAOFEN-11 01", "group": "resource", "lat": 8.781626440939705, "lon": -127.1843924849789, "alt_km": 422.74161861132507, "timestamp": "2025-12-14T18:52:55.155894+00:00", "meta": {"OBJECT_NAME": "GAOFEN-11 01", "OBJECT_ID": "2018-063A", "EPOCH": "2025-12-13T23:32:39.014304", "MEAN_MOTION": 15.49262307, "ECCENTRICITY": 0.00042856, "INCLINATION": 97.1563, "RA_OF_ASC_NODE": 50.9043, "ARG_OF_PERICENTER": 307.6868, "MEAN_ANOMALY": 52.3995, "EPHEMERIS_TYPE": 0, "CLASSIFICATION_TYPE": "U", "NORAD_CAT_ID": 43585, "ELEMENT_SET_NO": 999, "REV_AT_EPOCH": 41161, "BSTAR": 0.00028592393, "MEAN_MOTION_DOT": 0.00015537, "MEAN_MOTION_DDOT": 0}, "tle": {"line1": "1 43585U 18063A   25347.98100711  .00015537  00000+0  28592-3 0  9990", "line2": "2 43585  97.1563  50.9043 0004285 307.6868  52.3995 15.49262307411611"}}, "geometry": {"type": "Point", "coordinates": [-127.1843924849789, 8.781626440939705]}}, {"type": "Feature", "properties": {"norad_id": 43613, "name": "ICESAT-2", "group": "resource", "lat": 67.39000099765107, "lon": 66.11434676051272, "alt_km": 472.9062281116521, "timestamp": "2025-12-14T18:52:55.155905+00:00", "meta": {"OBJECT_NAME": "ICESAT-2", "OBJECT_ID": "2018-070A", "EPOCH": "2025-12-13T23:32:01.807008", "MEAN_MOTION": 15.28279536, "ECCENTRICITY": 0.00024324, "INCLINATION": 92.0047, "RA_OF_ASC_NODE": 241.0722, "ARG_OF_PERICENTER": 138.4125, "MEAN_ANOMALY": 221.731, "EPHEMERIS_TYPE": 0, "CLASSIFICATION_TYPE": "U", "NORAD_CAT_ID": 43613, "ELEMENT_SET_NO": 999, "REV_AT_EPOCH": 40417, "BSTAR": 0.0005454498, "MEAN_MOTION_DOT": 0.0001503, "MEAN_MOTION_DDOT": 0}, "tle": {"line1": "1 43613U 18070A   25347.98057647  .00015030  00000+0  54545-3 0  9994", "line2": "2 43613  92.0047 241.0722 0002432 138.4125 221.7310 15.28279536404174"}}, "geometry": {"type": "Point", "coordinates": [66.11434676051272, 67.39000099765107]}}, {"type": "Feature", "properties": {"norad_id": 43719, "name": "HYSIS", "group": "resource", "lat": -59.51483922883343, "lon": -142.08457832350337, "alt_km": 641.6077225410272, "timestamp": "2025-12-14T18:52:55.155915+00:00", "meta": {"OBJECT_NAME": "HYSIS", "OBJECT_ID": "2018-096A", "EPOCH": "2025-12-13T23:55:58.847232", "MEAN_MOTION": 14.7865056, "ECCENTRICITY": 0.00012796, "INCLINATION": 98.0097, "RA_OF_ASC_NODE": 50.9683, "ARG_OF_PERICENTER": 57.0546, "MEAN_ANOMALY": 303.0788, "EPHEMERIS_TYPE": 0, "CLASSIFICATION_TYPE": "U", "NORAD_CAT_ID": 43719, "ELEMENT_SET_NO": 999, "REV_AT_EPOCH": 38005, "BSTAR": 0.00025482381, "MEAN_MOTION_DOT": 1.815e-05, "MEAN_MOTION_DDOT": 0}, "tle": {"line1": "1 43719U 18096A   25347.99720888  .00001815  00000+0  25482-3 0  9998", "line2": "2 43719  98.0097  50.9683 0001279  57.0546 303.0788 14.78650560380053"}}, "geometry": {"type": "Point", "coordinates": [-142.08457832350337, -59.51483922883343]}}, {"type": "Feature", "properties": {"norad_id": 43783, "name": "KAZSTSAT", "group": "resource", "lat": -82.4500015172613, "lon": 122.74836246610175, "alt_km": 573.797966363355, "timestamp": "2025-12-14T18:52:55.155925+00:00", "meta": {"OBJECT_NAME": "KAZSTSAT", "OBJECT_ID": "2018-099AB", "EPOCH": "2025-12-14T00:04:02.844480", "MEAN_MOTION": 14.99357381, "ECCENTRICITY": 0.00058952, "INCLINATION": 97.4558, "RA_OF_ASC_NODE": 23.134, "ARG_OF_PERICENTER": 324.8582, "MEAN_ANOMALY": 35.2252, "EPHEMERIS_TYPE": 0, "CLASSIFICATION_TYPE": "U", "NORAD_CAT_ID": 43783, "ELEMENT_SET_NO": 999, "REV_AT_EPOCH": 38355, "BSTAR": 0.00013132953, "MEAN_MOTION_DOT": 1.55e-05, "MEAN_MOTION_DDOT": 0}, "tle": {"line1": "1 43783U 18099AB  25348.00281070  .00001550  00000+0  13133-3 0  9996", "line2": "2 43783  97.4558  23.1340 0005895 324.8582  35.2252 14.99357381383550"}}, "geometry": {"type": "Point", "coordinates": [122.74836246610175, -82.4500015172613]}}, {"type": "Feature", "properties": {"norad_id": 43831, "name": "SAUDISAT 5A", "group": "resource", "lat": 24.30315121271736, "lon": -127.72658090658621, "alt_km": 487.5876867174529, "timestamp": "2025-12-14T18:52:55.155936+00:00", "meta": {"OBJECT_NAME": "SAUDISAT 5A", "OBJECT_ID": "2018-102A", "EPOCH": "2025-12-13T23:18:55.401984", "MEAN_MOTION": 15.25678651, "ECCENTRICITY": 0.0011721, "INCLINATION": 97.3356, "RA_OF_ASC_NODE": 48.1387, "ARG_OF_PERICENTER": 72.4791, "MEAN_ANOMALY": 287.7727, "EPHEMERIS_TYPE": 0, "CLASSIFICATION_TYPE": "U", "NORAD_CAT_ID": 43831, "ELEMENT_SET_NO": 999, "REV_AT_EPOCH": 38741, "BSTAR": 0.000300692, "MEAN_MOTION_DOT": 7.601e-05, "MEAN_MOTION_DDOT": 0}, "tle": {"line1": "1 43831U 18102A   25347.97147456  .00007601  00000+0  30069-3 0  9999", "line2": "2 43831  97.3356  48.1387 0011721  72.4791 287.7727 15.25678651387416"}}, "geometry": {"type": "Point", "coordinates": [-127.72658090658621, 24.30315121271736]}}, {"type": "Feature", "properties": {"norad_id": 43833, "name": "SAUDISAT 5B", "group": "resource", "lat": -30.005436392331156, "lon": -132.59141102390657, "alt_km": 500.0811150266163, "timestamp": "2025-12-14T18:52:55.155947+00:00", "meta": {"OBJECT_NAME": "SAUDISAT 5B", "OBJECT_ID": "2018-102C", "EPOCH": "2025-12-14T00:39:14.253120", "MEAN_MOTION": 15.26030938, "ECCENTRICITY": 0.00124445, "INCLINATION": 97.345, "RA_OF_ASC_NODE": 50.9342, "ARG_OF_PERICENTER": 74.5042, "MEAN_ANOMALY": 285.7569, "EPHEMERIS_TYPE": 0, "CLASSIFICATION_TYPE": "U", "NORAD_CAT_ID": 43833, "ELEMENT_SET_NO": 999, "REV_AT_EPOCH": 38753, "BSTAR": 0.00027834145, "MEAN_MOTION_DOT": 7.107e-05, "MEAN_MOTION_DDOT": 0}, "tle": {"line1": "1 43833U 18102C   25348.02724830  .00007107  00000+0  27834-3 0  9992", "line2": "2 43833  97.3450  50.9342 0012444  74.5042 285.7569 15.26030938387536"}}, "geometry": {"type": "Point", "coordinates": [-132.59141102390657, -30.005436392331156]}}]}